KAZSAT-2                
1 37749U 11035B   26166.91778075 -.00000197  00000+0  00000+0 0  9991
2 37749   0.0315 236.1441 0001127 283.0980 161.8719  1.00272144 53386
NAVSTAR 66 (USA 232)    
1 37753U 11036A   26166.89554564 -.00000082  00000+0  00000+0 0  9992
2 37753  56.5655 332.0697 0141957  62.5415 316.7917  2.00562177109250
BEIDOU-2 IGSO-4         
1 37763U 11038A   26166.86900419  .00000029  00000+0  00000+0 0  9996
2 37763  54.5998 165.6847 0159543 231.3979 273.2630  1.00285205 54630
SJ-11-02                
1 37765U 11039A   26167.30038175  .00000444  00000+0  93021-4 0  9991
2 37765  98.2625  57.2941 0009219 266.0610 205.8045 14.64478578793829
ASTRA 1N                
1 37775U 11041A   26167.11832373  .00000119  00000+0  00000+0 0  9995
2 37775   0.0950  45.4404 0006015  49.7303 231.0140  1.00270923 44513
BSAT-3C (JCSAT-110R)    
1 37776U 11041B   26167.01225384 -.00000350  00000+0  00000+0 0  9991
2 37776   0.0185  15.3112 0000070 182.0328 181.3136  1.00270767 50457
PAKSAT-1R               
1 37779U 11042A   26167.12205042  .00000153  00000+0  00000+0 0  9996
2 37779   0.6866  84.6013 0003236 336.1817 285.5993  1.00265568 54469
HAIYANG-2A              
1 37781U 11043A   26167.31039759  .00000204  00000+0  26198-3 0  9998
2 37781  99.3386 170.0056 0006065  93.2240 266.9604 13.74405309746536
NIGERIASAT-2            
1 37789U 11044B   26167.26253089  .00000486  00000+0  87515-4 0  9998
2 37789  97.8770 144.4682 0031103 123.2891   0.2941 14.70515479790439
NIGERIASAT-X            
1 37790U 11044C   26167.24471563  .00000290  00000+0  68137-4 0  9999
2 37790  97.8543 151.4607 0011861 344.4883  15.5953 14.60866109790037
RASAT                   
1 37791U 11044D   26167.29422517  .00000211  00000+0  45170-4 0  9995
2 37791  98.0582 258.7044 0020114 191.6503 244.4108 14.68164845793058
APRIZESAT 5             
1 37792U 11044E   26167.26409287  .00000971  00000+0  12973-3 0  9999
2 37792  98.2453 100.2783 0052416   7.3044 352.8919 14.81074351798654
APRIZESAT 6             
1 37793U 11044F   26166.99546477  .00000651  00000+0  98906-4 0  9998
2 37793  98.2365  77.4707 0044496  89.7335 333.6407 14.76914317796975
SES-2                   
1 37809U 11049A   26167.29585450 -.00000196  00000+0  00000+0 0  9997
2 37809   0.0615 100.2258 0002630 343.9449 199.9023  1.00270434 53952
ARABSAT-5C              
1 37810U 11049B   26167.11849706  .00000123  00000+0  00000+0 0  9996
2 37810   0.0512  14.9635 0003426  87.8886 224.1862  1.00271269 54021
EUTELSAT 7 WEST A       
1 37816U 11051A   26167.11303704 -.00000061  00000+0  00000+0 0  9990
2 37816   0.0633  12.4590 0004036  83.9664 201.3319  1.00271247 53864
TACSAT 4                
1 37818U 11052A   26166.28291336  .00001433  00000+0  56559-3 0  9994
2 37818  62.8244 121.1061 4625077 283.7053  30.3967  6.15542525324671
QUETZSAT 1              
1 37826U 11054A   26167.22625455 -.00000242  00000+0  00000+0 0  9997
2 37826   0.0223  39.3886 0002513  48.3938 181.1706  1.00270468 49867
INTELSAT 18 (IS-18)     
1 37834U 11056A   26167.22146318  .00000052  00000+0  00000+0 0  9992
2 37834   0.0151 317.1328 0001550 125.8808  81.2040  1.00271347 53808
EUTELSAT 16A            
1 37836U 11057A   26167.04640358  .00000104  00000+0  00000+0 0  9996
2 37836   0.0460  17.6013 0005988  70.5225 208.9086  1.00273863  7323
JUGNU                   
1 37839U 11058B   26167.11854749  .00000400  00000+0  69482-4 0  9992
2 37839  19.9617 314.9218 0018636  64.4642 109.1077 14.13776503758870
SRMSAT                  
1 37841U 11058D   26167.08586324  .00000355  00000+0  48745-4 0  9990
2 37841  19.9722  66.1331 0011815 191.4739 210.8496 14.11575350757668
VIASAT-1                
1 37843U 11059A   26166.01642035 -.00000019  00000+0  00000+0 0  9992
2 37843   0.0175 336.5077 0002021 105.2509  72.3583  1.00271822 47303
GSAT0101 (GALILEO-PFM)  
1 37846U 11060A   26163.74233043 -.00000071  00000+0  00000+0 0  9997
2 37846  56.9957 341.8816 0003117  51.3749 308.6629  1.70475562 91048
GSAT0102 (GALILEO-FM2)  
1 37847U 11060B   26166.59146788 -.00000084  00000+0  00000+0 0  9997
2 37847  56.9958 341.8048 0003167  14.2663 339.9688  1.70475803 91090
SUOMI NPP               
1 37849U 11061A   26167.28325244  .00000055  00000+0  46938-4 0  9995
2 37849  98.7953 108.1655 0001587   9.0005 351.1199 14.19517179758313
COSMOS 2476 [GLONASS-M] 
1 37867U 11064A   26167.22256485 -.00000021  00000+0  00000+0 0  9991
2 37867  65.2693  72.9043 0022679 238.7506 265.8553  2.13103854113743
COSMOS 2477 [GLONASS-M] 
1 37868U 11064B   26164.17359397 -.00000031  00000+0  00000+0 0  9990
2 37868  65.2740  73.0865 0019884 240.5145 265.3672  2.13103103113671
COSMOS 2475 [GLONASS-M] 
1 37869U 11064C   26164.21303852 -.00000031  00000+0  00000+0 0  9991
2 37869  65.2809  73.1067 0025589 253.3203 237.9576  2.13101955113681
YAOGAN-12               
1 37875U 11066B   26167.34808720  .00003661  00000+0  14239-3 0  9995
2 37875  97.1141 205.9558 0008592 219.6742 140.3869 15.26591787811916
CHUANGXIN 1-03 (CX-1-03)
1 37930U 11068A   26167.33248012  .00000073  00000+0  44966-4 0  9995
2 37930  98.6976 184.9270 0015990 116.5651 300.1590 14.30538173760533
