OBJECT_NAME,OBJECT_ID,EPOCH,MEAN_MOTION,ECCENTRICITY,INCLINATION,RA_OF_ASC_NODE,ARG_OF_PERICENTER,MEAN_ANOMALY,EPHEMERIS_TYPE,CLASSIFICATION_TYPE,NORAD_CAT_ID,ELEMENT_SET_NO,REV_AT_EPOCH,BSTAR,MEAN_MOTION_DOT,MEAN_MOTION_DDOT
KAZSAT-2,2011-035B,2026-06-15T22:01:36.256800,1.00272144,.00011279,0.0315,236.1441,283.0980,161.8719,0,U,37749,999,5338,0,-.197E-5,0
NAVSTAR 66 (USA 232),2011-036A,2026-06-15T21:29:35.143296,2.00562177,.0141957,56.5655,332.0697,62.5415,316.7917,0,U,37753,999,10925,0,-.82E-6,0
BEIDOU-2 IGSO-4,2011-038A,2026-06-15T20:51:21.962016,1.00285205,.01595433,54.5998,165.6847,231.3979,273.2630,0,U,37763,999,5463,0,.29E-6,0
SJ-11-02,2011-039A,2026-06-16T07:12:32.983200,14.64478578,.00092192,98.2625,57.2941,266.0610,205.8045,0,U,37765,999,79382,.9302139E-4,.444E-5,0
ASTRA 1N,2011-041A,2026-06-16T02:50:23.170272,1.00270923,.00060153,0.0950,45.4404,49.7303,231.0140,0,U,37775,999,4451,0,.119E-5,0
BSAT-3C (JCSAT-110R),2011-041B,2026-06-16T00:17:38.731776,1.00270767,.000007,0.0185,15.3112,182.0328,181.3136,0,U,37776,999,5045,0,-.35E-5,0
PAKSAT-1R,2011-042A,2026-06-16T02:55:45.156288,1.00265568,.00032363,0.6866,84.6013,336.1817,285.5993,0,U,37779,999,5446,0,.153E-5,0
HAIYANG-2A,2011-043A,2026-06-16T07:26:58.351776,13.74405309,.0006065,99.3386,170.0056,93.2240,266.9604,0,U,37781,999,74653,.2619807E-3,.204E-5,0
NIGERIASAT-2,2011-044B,2026-06-16T06:18:02.668896,14.70515479,.00311032,97.8770,144.4682,123.2891,0.2941,0,U,37789,999,79043,.8751483E-4,.486E-5,0
NIGERIASAT-X,2011-044C,2026-06-16T05:52:23.430432,14.60866109,.00118611,97.8543,151.4607,344.4883,15.5953,0,U,37790,999,79003,.68137306E-4,.29E-5,0
RASAT,2011-044D,2026-06-16T07:03:41.054688,14.68164845,.00201143,98.0582,258.7044,191.6503,244.4108,0,U,37791,999,79305,.45170276E-4,.211E-5,0
APRIZESAT 5,2011-044E,2026-06-16T06:20:17.623968,14.81074351,.00524165,98.2453,100.2783,7.3044,352.8919,0,U,37792,999,79865,.1297316E-3,.971E-5,0
APRIZESAT 6,2011-044F,2026-06-15T23:53:28.156128,14.76914317,.00444963,98.2365,77.4707,89.7335,333.6407,0,U,37793,999,79697,.98906232E-4,.651E-5,0
SES-2,2011-049A,2026-06-16T07:06:01.828800,1.00270434,.00026308,0.0615,100.2258,343.9449,199.9023,0,U,37809,999,5395,0,-.196E-5,0
ARABSAT-5C,2011-049B,2026-06-16T02:50:38.145984,1.00271269,.0003426,0.0512,14.9635,87.8886,224.1862,0,U,37810,999,5402,0,.123E-5,0
EUTELSAT 7 WEST A,2011-051A,2026-06-16T02:42:46.400256,1.00271247,.00040366,0.0633,12.4590,83.9664,201.3319,0,U,37816,999,5386,0,-.61E-6,0
TACSAT 4,2011-052A,2026-06-15T06:47:23.714304,6.15542525,.46250778,62.8244,121.1061,283.7053,30.3967,0,U,37818,999,32467,.56559408E-3,.1433E-4,0
QUETZSAT 1,2011-054A,2026-06-16T05:25:48.393120,1.00270468,.00025131,0.0223,39.3886,48.3938,181.1706,0,U,37826,999,4986,0,-.242E-5,0
INTELSAT 18 (IS-18),2011-056A,2026-06-16T05:18:54.418752,1.00271347,.00015508,0.0151,317.1328,125.8808,81.2040,0,U,37834,999,5380,0,.52E-6,0
EUTELSAT 16A,2011-057A,2026-06-16T01:06:49.269312,1.00273863,.00059887,0.0460,17.6013,70.5225,208.9086,0,U,37836,999,732,0,.104E-5,0
JUGNU,2011-058B,2026-06-16T02:50:42.503136,14.13776503,.00186362,19.9617,314.9218,64.4642,109.1077,0,U,37839,999,75887,.69481526E-4,.4E-5,0
SRMSAT,2011-058D,2026-06-16T02:03:38.583936,14.11575350,.0011815,19.9722,66.1331,191.4739,210.8496,0,U,37841,999,75766,.48744584E-4,.355E-5,0
VIASAT-1,2011-059A,2026-06-15T00:23:38.718240,1.00271822,.00020218,0.0175,336.5077,105.2509,72.3583,0,U,37843,999,4730,0,-.19E-6,0
GSAT0101 (GALILEO-PFM),2011-060A,2026-06-12T17:48:57.349152,1.70475562,.00031174,56.9957,341.8816,51.3749,308.6629,0,U,37846,999,9104,0,-.71E-6,0
GSAT0102 (GALILEO-FM2),2011-060B,2026-06-15T14:11:42.824832,1.70475803,.00031675,56.9958,341.8048,14.2663,339.9688,0,U,37847,999,9109,0,-.84E-6,0
SUOMI NPP,2011-061A,2026-06-16T06:47:53.010816,14.19517179,.00015879,98.7953,108.1655,9.0005,351.1199,0,U,37849,999,75831,.46937852E-4,.55E-6,0
COSMOS 2476 [GLONASS-M],2011-064A,2026-06-16T05:20:29.603040,2.13103854,.00226791,65.2693,72.9043,238.7506,265.8553,0,U,37867,999,11374,0,-.21E-6,0
COSMOS 2477 [GLONASS-M],2011-064B,2026-06-13T04:09:58.519008,2.13103103,.00198843,65.2740,73.0865,240.5145,265.3672,0,U,37868,999,11367,0,-.31E-6,0
COSMOS 2475 [GLONASS-M],2011-064C,2026-06-13T05:06:46.528128,2.13101955,.00255895,65.2809,73.1067,253.3203,237.9576,0,U,37869,999,11368,0,-.31E-6,0
YAOGAN-12,2011-066B,2026-06-16T08:21:14.734080,15.26591787,.00085928,97.1141,205.9558,219.6742,140.3869,0,U,37875,999,81191,.14238512E-3,.3661E-4,0
CHUANGXIN 1-03 (CX-1-03),2011-068A,2026-06-16T07:58:46.282368,14.30538173,.00159902,98.6976,184.9270,116.5651,300.1590,0,U,37930,999,76053,.44965593E-4,.73E-6,0
